NORAD_CAT_ID,OBJECT_NAME,OBJECT_TYPE,EPOCH,MEAN_MOTION,ECCENTRICITY,INCLINATION,RA_OF_ASC_NODE,ARG_OF_PERICENTER,MEAN_ANOMALY,BSTAR,MEAN_MOTION_DOT,MEAN_MOTION_DDOT,TLE_LINE0,TLE_LINE1,TLE_LINE2,SEMIMAJOR_AXIS,PERIOD,APOGEE,PERIGEE,DECAYED
52293.0,STARLINK-3771,PAYLOAD,2023-01-25 02:24:21,15.08839646,0.0002290999999999,53.2177,174.9441,67.6696,292.4539,-4.7555000000000005e-06,-3.64e-06,0.0,0 STARLINK-3771,1 52293U 22041AJ  23025.10025368 -.00000364  00000-0 -47555-5 0  9993,2 52293  53.2177 174.9441 0002291  67.6696 292.4539 15.08839646 43687,6917.880999999999,95.438,541.331,538.1619999999999,0.0
52293.0,STARLINK-3771,PAYLOAD,2023-01-25 13:32:04,15.08832242,0.0002404,53.2179,172.8616,74.2869,285.8388,-1.3365e-05,-5.01e-06,0.0,0 STARLINK-3771,1 52293U 22041AJ  23025.56394099 -.00000501  00000-0 -13365-4 0  9997,2 52293  53.2179 172.8616 0002404  74.2869 285.8388 15.08832242 42538,6917.904,95.438,541.432,538.106,0.0
52293.0,STARLINK-3771,PAYLOAD,2023-01-25 18:18:13,15.0883862,0.0002346,53.2163,171.9715,73.1517,286.9732,3.064e-05,1.99e-06,0.0,0 STARLINK-3771,1 52293U 22041AJ  23025.76265568  .00000199  00000-0  30640-4 0  9993,2 52293  53.2163 171.9715 0002346  73.1517 286.9732 15.08838620 42568,6917.885,95.438,541.373,538.127,0.0
52293.0,STARLINK-3771,PAYLOAD,2023-01-26 13:22:51,15.08836125,0.0002186999999999,53.2166,168.4029,75.0578,285.0657,-2.4997e-05,-6.86e-06,0.0,0 STARLINK-3771,1 52293U 22041AJ  23026.55754167 -.00000686  00000-0 -24997-4 0  9990,2 52293  53.2166 168.4029 0002187  75.0578 285.0657 15.08836125 42688,6917.892,95.438,541.27,538.244,0.0
52293.0,STARLINK-3771,PAYLOAD,2023-01-26 14:58:14,15.08836515,0.0002174,53.2162,168.1058,75.832,284.2913,-1.0419e-05,-4.54e-06,0.0,0 STARLINK-3771,1 52293U 22041AJ  23026.62378094 -.00000454  00000-0 -10419-4 0  9996,2 52293  53.2162 168.1058 0002174  75.8320 284.2913 15.08836515 43918,6917.891,95.438,541.26,538.252,0.0
52293.0,STARLINK-3771,PAYLOAD,2023-01-27 13:13:38,15.08838681,0.0002052,53.2152,163.9428,83.0749,277.0476,0.00010949,1.455e-05,0.0,0 STARLINK-3771,1 52293U 22041AJ  23027.55113755  .00001455  00000-0  10949-3 0  9997,2 52293  53.2152 163.9428 0002052  83.0749 277.0476 15.08838681 42832,6917.884,95.438,541.169,538.33,0.0
52293.0,STARLINK-3771,PAYLOAD,2023-01-27 16:24:24,15.08845592,0.000206,53.2157,163.3476,78.1884,281.9339,8.9043e-05,1.129e-05,0.0,0 STARLINK-3771,1 52293U 22041AJ  23027.68361453  .00001129  00000-0  89043-4 0  9991,2 52293  53.2157 163.3476 0002060  78.1884 281.9339 15.08845592 44077,6917.863,95.437,541.153,538.303,0.0
52293.0,STARLINK-3771,PAYLOAD,2023-01-28 13:04:25,15.0883735,0.0002008,53.2155,159.483,82.618,277.504,7.9232e-05,9.73e-06,0.0,0 STARLINK-3771,1 52293U 22041AJ  23028.54473968  .00000973  00000-0  79232-4 0  9997,2 52293  53.2155 159.4830 0002008  82.6180 277.5040 15.08837350 44204,6917.888,95.438,541.143,538.364,0.0
52293.0,STARLINK-3771,PAYLOAD,2023-01-28 17:50:33,15.08857024,0.0002265,53.2165,158.5914,93.6091,266.516,-5.3337e-05,-1.138e-05,0.0,0 STARLINK-3771,1 52293U 22041AJ  23028.74344831 -.00001138  00000-0 -53337-4 0  9999,2 52293  53.2165 158.5914 0002265  93.6091 266.5160 15.08857024 44230,6917.828,95.436,541.26,538.126,0.0
52293.0,STARLINK-3771,PAYLOAD,2023-01-29 01:47:30,15.08838518,0.0001908,53.2161,157.1044,87.5515,272.5695,3.2534e-05,2.3e-06,0.0,0 STARLINK-3771,1 52293U 22041AJ  23029.07465881  .00000230  00000-0  32534-4 0  9991,2 52293  53.2161 157.1044 0001908  87.5515 272.5695 15.08838518 44283,6917.885,95.438,541.07,538.43,0.0
52293.0,STARLINK-3771,PAYLOAD,2023-01-29 16:05:58,15.08843642,0.0001986,53.216,154.4275,87.3957,272.7263,-2.8835e-06,-3.34e-06,0.0,0 STARLINK-3771,1 52293U 22041AJ  23029.67081736 -.00000334  00000-0 -28835-5 0  9997,2 52293  53.2160 154.4275 0001986  87.3957 272.7263 15.08843642 43154,6917.869,95.437,541.108,538.36,0.0
52293.0,STARLINK-3771,PAYLOAD,2023-01-30 11:10:36,15.08835471,0.0001979,53.2155,150.8579,90.4547,269.6672,1.8014e-05,-2e-08,0.0,0 STARLINK-3771,1 52293U 22041AJ  23030.46570128 -.00000002  00000-0  18014-4 0  9992,2 52293  53.2155 150.8579 0001979  90.4547 269.6672 15.08835471 43270,6917.894,95.438,541.128,538.39,0.0
52293.0,STARLINK-3771,PAYLOAD,2023-01-31 12:36:46,15.08828026,0.0001803,53.2161,146.0993,99.7349,260.3847,0.0002369,3.483e-05,0.0,0 STARLINK-3771,1 52293U 22041AJ  23031.52553968  .00003483  00000-0  23690-3 0  9993,2 52293  53.2161 146.0993 0001803  99.7349 260.3847 15.08828026 44655,6917.917,95.438,541.029,538.535,0.0
52293.0,STARLINK-3771,PAYLOAD,2023-01-31 17:22:55,15.08844425,0.0001846,53.2161,145.207,99.0645,261.0556,4.8171e-05,4.79e-06,0.0,0 STARLINK-3771,1 52293U 22041AJ  23031.72425403  .00000479  00000-0  48171-4 0  9991,2 52293  53.2161 145.2070 0001846  99.0645 261.0556 15.08844425 44680,6917.867,95.437,541.009,538.455,0.0
52293.0,STARLINK-3771,PAYLOAD,2023-02-01 10:52:10,15.08835094,0.0002167,53.2155,141.9346,106.3011,253.8219,7.5851e-06,-1.68e-06,0.0,0 STARLINK-3771,1 52293U 22041AJ  23032.45290272 -.00000168  00000-0  75851-5 0  9998,2 52293  53.2155 141.9346 0002167 106.3011 253.8219 15.08835094 44797,6917.895,95.438,541.259,538.261,0.0
52293.0,STARLINK-3771,PAYLOAD,2023-02-01 12:27:33,15.08834705,0.0001724,53.2163,141.6393,93.1627,266.9563,2.6904e-05,1.4e-06,0.0,0 STARLINK-3771,1 52293U 22041AJ  23032.51914266  .00000140  00000-0  26904-4 0  9994,2 52293  53.2163 141.6393 0001724  93.1627 266.9563 15.08834705 43580,6917.897,95.438,540.954,538.569,0.0
52293.0,STARLINK-3771,PAYLOAD,2023-02-02 12:18:20,15.08841439,0.0001716,53.2164,137.1776,95.92,264.1988,1.5657e-05,-3.9e-07,0.0,0 STARLINK-3771,1 52293U 22041AJ  23033.51274132 -.00000039  00000-0  15657-4 0  9997,2 52293  53.2164 137.1776 0001716  95.9200 264.1988 15.08841439 43734,6917.876,95.437,540.928,538.554,0.0
52293.0,STARLINK-3771,PAYLOAD,2023-02-03 05:47:36,15.08830293,0.0001849,53.2176,133.9108,89.3975,270.7229,2.982e-05,1.86e-06,0.0,0 STARLINK-3771,1 52293U 22041AJ  23034.24139252  .00000186  00000-0  29820-4 0  9990,2 52293  53.2176 133.9108 0001849  89.3975 270.7229 15.08830293 45068,6917.91,95.438,541.054,538.496,0.0
52293.0,STARLINK-3771,PAYLOAD,2023-02-03 08:58:22,15.0882648,0.0001631,53.2159,133.3151,85.3777,274.7402,-3.2151e-05,-7.99e-06,0.0,0 STARLINK-3771,1 52293U 22041AJ  23034.37387604 -.00000799  00000-0 -32151-4 0  9993,2 52293  53.2159 133.3151 0001631  85.3777 274.7402 15.08826480 43862,6917.922,95.438,540.915,538.658,0.0
52293.0,STARLINK-3771,PAYLOAD,2023-02-03 15:19:55,15.08831425,0.0001621,53.2158,132.1252,90.2043,269.9135,1.6186e-05,-3e-07,0.0,0 STARLINK-3771,1 52293U 22041AJ  23034.63883437 -.00000030  00000-0  16186-4 0  9994,2 52293  53.2158 132.1252 0001621  90.2043 269.9135 15.08831425 43909,6917.907,95.438,540.893,538.65,0.0
52293.0,STARLINK-3771,PAYLOAD,2023-02-04 11:59:55,15.08845887,0.0001441,53.2162,128.2593,91.6769,268.4388,8.4951e-05,1.065e-05,0.0,0 STARLINK-3771,1 52293U 22041AJ  23035.49994327  .00001065  00000-0  84951-4 0  9993,2 52293  53.2162 128.2593 0001441  91.6769 268.4388 15.08845887 45259,6917.862,95.437,540.724,538.731,0.0
52293.0,STARLINK-3771,PAYLOAD,2023-02-04 13:35:18,15.08846305,0.0001464,53.2161,127.9618,90.18,269.936,0.00011135,1.485e-05,0.0,0 STARLINK-3771,1 52293U 22041AJ  23035.56618223  .00001485  00000-0  11135-3 0  9998,2 52293  53.2161 127.9618 0001464  90.1800 269.9360 15.08846305 44045,6917.861,95.437,540.739,538.713,0.0
52293.0,STARLINK-3771,PAYLOAD,2023-02-05 13:26:27,15.08590797,0.0001946,53.2166,123.5027,42.3932,317.721,-0.0019614,-0.00031158,0.0,0 STARLINK-3771,1 52293U 22041AJ  23036.56003490 -.00031158  00000-0 -19614-2 0  9994,2 52293  53.2166 123.5027 0001946  42.3932 317.7210 15.08590797 45415,6918.642,95.453,541.854,539.161,0.0
52293.0,STARLINK-3771,PAYLOAD,2023-02-05 19:48:12,15.08458851,9.26e-05,53.2161,122.3141,102.2691,257.8405,-0.0029246,-0.00046054,0.0,0 STARLINK-3771,1 52293U 22041AJ  23036.82514805 -.00046054  00000-0 -29246-2 0  9993,2 52293  53.2161 122.3141 0000926 102.2691 257.8405 15.08458851 45457,6919.046,95.462,541.551,540.27,0.0
52293.0,STARLINK-3771,PAYLOAD,2023-02-05 21:23:41,15.08397257,0.0001443,53.2162,122.0175,68.2523,291.8623,-0.0033776,-0.00053003,0.0,0 STARLINK-3771,1 52293U 22041AJ  23036.89145537 -.00053003  00000-0 -33776-2 0  9997,2 52293  53.2162 122.0175 0001443  68.2523 291.8623 15.08397257 44240,6919.234,95.466,542.097,540.101,0.0
52293.0,STARLINK-3771,PAYLOAD,2023-02-05 22:59:06,15.08392576,0.0001131,53.2155,121.719,85.1863,274.9258,-0.0033731,-0.00052926,0.0,0 STARLINK-3771,1 52293U 22041AJ  23036.95771335 -.00052926  00000-0 -33731-2 0  9999,2 52293  53.2155 121.7190 0001131  85.1863 274.9258 15.08392576 45475,6919.248,95.466,541.896,540.331,0.0
52293.0,STARLINK-3771,PAYLOAD,2023-02-06 11:42:28,15.08271292,0.0001624,53.2169,119.3395,96.8864,263.2312,-0.0024087,-0.00037832,0.0,0 STARLINK-3771,1 52293U 22041AJ  23037.48783031 -.00037832  00000-0 -24087-2 0  9997,2 52293  53.2169 119.3395 0001624  96.8864 263.2312 15.08271292 45559,6919.619,95.474,542.608,540.361,0.0
52293.0,STARLINK-3771,PAYLOAD,2023-02-06 21:14:58,15.08315427,0.0001356,53.218,117.551,94.8036,265.3111,-0.0032765,-0.00051323,0.0,0 STARLINK-3771,1 52293U 22041AJ  23037.88539520 -.00051323  00000-0 -32765-2 0  9996,2 52293  53.2180 117.5510 0001356  94.8036 265.3111 15.08315427 45618,6919.484,95.471,542.288,540.411,0.0
52293.0,STARLINK-3771,PAYLOAD,2023-02-06 22:50:18,15.08369423,7.06e-05,53.2178,117.2565,132.1533,227.9519,-0.0026725,-0.00042029,0.0,0 STARLINK-3771,1 52293U 22041AJ  23037.95160561 -.00042029  00000-0 -26725-2 0  9991,2 52293  53.2178 117.2565 0000706 132.1533 227.9519 15.08369423 45620,6919.319,95.467,541.673,540.696,0.0
52293.0,STARLINK-3771,PAYLOAD,2023-02-07 11:33:19,15.08549875,8.94e-05,53.2175,114.8758,113.0253,247.0833,0.00037613,5.657e-05,0.0,0 STARLINK-3771,1 52293U 22041AJ  23038.48147572  .00005657  00000-0  37613-3 0  9990,2 52293  53.2175 114.8758 0000894 113.0253 247.0833 15.08549875 45701,6918.767,95.456,541.251,540.014,0.0
